OBJECT_NAME,OBJECT_ID,EPOCH,MEAN_MOTION,ECCENTRICITY,INCLINATION,RA_OF_ASC_NODE,ARG_OF_PERICENTER,MEAN_ANOMALY,EPHEMERIS_TYPE,CLASSIFICATION_TYPE,NORAD_CAT_ID,ELEMENT_SET_NO,REV_AT_EPOCH,BSTAR,MEAN_MOTION_DOT,MEAN_MOTION_DDOT
GLOBALSTAR M069,2007-020C,2026-06-05T15:52:04.204992,12.23470970,.000255,52.0040,284.7490,124.6168,249.2922,0,U,31573,999,87739,.41039129E-3,-.48E-6,0
GLOBALSTAR M072,2007-020D,2026-06-05T16:03:58.161024,11.91658402,.00013661,51.9904,130.9082,299.5825,231.8572,0,U,31574,999,87360,-.65163409E-4,-.89E-6,0
GLOBALSTAR M066,2007-048C,2026-06-05T13:33:53.707680,12.30389091,.00052609,51.9584,91.2745,19.0210,152.1820,0,U,32265,999,85879,.31147639E-4,-.91E-6,0
GLOBALSTAR M079,2010-054A,2026-06-05T16:17:19.680864,12.62265935,.00004395,52.0012,143.7029,353.7859,177.1529,0,U,37188,999,72109,-.47511998E-4,-.112E-5,0
GLOBALSTAR M074,2010-054B,2026-06-05T16:55:11.585280,12.62268442,.00002658,51.9988,142.8895,46.1867,124.4309,0,U,37189,999,72170,-.50641306E-4,-.113E-5,0
GLOBALSTAR M076,2010-054C,2026-06-05T05:19:03.628992,12.62261853,.0000435,52.0012,144.5631,26.5802,346.5630,0,U,37190,999,72136,-.12183E-4,-.106E-5,0
GLOBALSTAR M077,2010-054D,2026-06-05T11:13:39.914112,11.67547625,.00029284,51.9938,209.0425,151.6357,221.6681,0,U,37191,999,71977,.56600301E-4,-.75E-6,0
GLOBALSTAR M075,2010-054E,2026-06-05T09:55:38.263584,12.62267368,.00001356,51.9923,186.0415,158.0605,307.9379,0,U,37192,999,72045,-.23237994E-4,-.108E-5,0
GLOBALSTAR M073,2010-054F,2026-06-05T14:04:59.606400,12.62262066,.0000681,52.0052,99.6029,22.7188,149.2810,0,U,37193,999,72246,.6015272E-5,-.103E-5,0
GLOBALSTAR M083,2011-033A,2026-06-05T10:35:08.613024,12.62262803,.00007799,51.9871,48.2915,47.0234,123.8287,0,U,37739,999,69146,.47957669E-4,-.95E-6,0
GLOBALSTAR M088,2011-033B,2026-06-05T16:43:58.627776,12.62268459,.00008638,52.0228,313.9135,108.9229,264.6036,0,U,37740,999,68704,.68242073E-4,-.92E-6,0
GLOBALSTAR M091,2011-033C,2026-06-05T15:08:30.931584,12.62263709,.00005585,52.0006,277.0970,127.3778,245.8810,0,U,37741,999,68782,.17854484E-3,-.72E-6,0
GLOBALSTAR M081,2011-033E,2026-06-05T12:08:37.112640,12.62264716,.00003344,51.9949,231.2094,129.9767,334.9772,0,U,37743,999,68846,.84653912E-4,-.89E-6,0
GLOBALSTAR M082,2011-080C,2026-06-04T17:55:50.104416,12.62269794,.0000518,52.0097,12.3672,84.4581,351.1958,0,U,38042,999,66802,.84429E-4,-.89E-6,0
GLOBALSTAR M092,2011-080D,2026-06-05T14:42:29.452032,12.62266817,.00004763,52.0082,100.1279,47.2425,123.3775,0,U,38043,999,66658,-.43116725E-4,-.111E-5,0
GLOBALSTAR M086,2011-080F,2026-06-05T07:00:30.070080,12.62286365,.0001592,51.9918,4.6104,47.4910,124.6365,0,U,38045,999,66815,.40299E-5,-.103E-5,0
GLOBALSTAR M093,2013-005B,2026-06-05T13:48:18.373824,12.62265600,.00003535,52.0113,272.0259,107.7643,252.3263,0,U,39073,999,61539,.14893787E-3,-.77E-6,0
GLOBALSTAR M094,2013-005C,2026-06-05T08:06:07.822656,12.62268510,.00001053,51.9933,186.8785,310.5321,49.5536,0,U,39074,999,61697,-.1131002E-5,-.104E-5,0
GLOBALSTAR M096,2013-005D,2026-06-05T12:13:32.325024,12.62265366,.00002489,52.0066,235.1476,155.7824,204.3055,0,U,39075,999,61591,.15977688E-3,-.75E-6,0
GLOBALSTAR M078,2013-005E,2026-06-05T03:58:30.022464,12.62260060,.0000673,51.9886,320.2179,185.7750,174.3109,0,U,39076,999,61449,.21013395E-4,-.1E-5,0
GLOBALSTAR M095,2013-005F,2026-06-05T04:37:04.096128,12.62263322,.0000414,52.0094,317.7242,120.4467,239.6441,0,U,39077,999,61435,.62223E-4,-.93E-6,0
GLOBALSTAR M087,2022-064A,2026-06-05T12:32:18.885120,12.62268842,.00005019,51.9988,97.9643,10.7747,349.3130,0,U,52888,999,18966,.42132488E-4,-.96E-6,0
